{
  "type": "FeatureCollection",
  "features": [
    {
      "type": "Feature",
      "properties": {
        "norad_id": 66449,
        "name": "STARLINK-34720",
        "group": "last-30-days",
        "lat": -28.781074682505306,
        "lon": 60.81642825463239,
        "alt_km": 416.85681336043854,
        "timestamp": "2025-12-04T05:42:42.157689+00:00",
        "meta_object_name": "STARLINK-34720",
        "meta_object_id": "2025-259AD",
        "meta_epoch": "2025-12-03T22:00:03.000096",
        "meta_mean_motion": 15.50636486,
        "meta_eccentricity": 0.00016219,
        "meta_inclination": 43.0005,
        "meta_ra_of_asc_node": 98.817,
        "meta_arg_of_pericenter": 274.4488,
        "meta_mean_anomaly": 45.0568,
        "meta_ephemeris_type": 0,
        "meta_classification_type": "U",
        "meta_norad_cat_id": 66449,
        "meta_element_set_no": 999,
        "meta_rev_at_epoch": 475,
        "meta_bstar": -0.0021229903,
        "meta_mean_motion_dot": -0.00123202,
        "meta_mean_motion_ddot": 0,
        "tle_line1": "1 66449U 25259AD  25337.91670139 -.00123202  00000+0 -21230-2 0  9999",
        "tle_line2": "2 66449  43.0005  98.8170 0001621 274.4488  45.0568 15.50636486  4751"
      },
      "geometry": {
        "type": "Point",
        "coordinates": [
          60.81642825463239,
          -28.781074682505306
        ]
      }
    },
    {
      "type": "Feature",
      "properties": {
        "norad_id": 66450,
        "name": "STARLINK-35334",
        "group": "last-30-days",
        "lat": -27.70855658042031,
        "lon": 62.62651453924373,
        "alt_km": 416.82734991187954,
        "timestamp": "2025-12-04T05:42:42.157699+00:00",
        "meta_object_name": "STARLINK-35334",
        "meta_object_id": "2025-259AE",
        "meta_epoch": "2025-12-03T22:00:03.000096",
        "meta_mean_motion": 15.5070444,
        "meta_eccentricity": 0.00017145,
        "meta_inclination": 43.0004,
        "meta_ra_of_asc_node": 98.8119,
        "meta_arg_of_pericenter": 268.9547,
        "meta_mean_anomaly": 52.4352,
        "meta_ephemeris_type": 0,
        "meta_classification_type": "U",
        "meta_norad_cat_id": 66450,
        "meta_element_set_no": 999,
        "meta_rev_at_epoch": 486,
        "meta_bstar": -0.0038691908,
        "meta_mean_motion_dot": -0.00222013,
        "meta_mean_motion_ddot": 0,
        "tle_line1": "1 66450U 25259AE  25337.91670139 -.00222013  00000+0 -38692-2 0  9991",
        "tle_line2": "2 66450  43.0004  98.8119 0001714 268.9547  52.4352 15.50704440  4863"
      },
      "geometry": {
        "type": "Point",
        "coordinates": [
          62.62651453924373,
          -27.70855658042031
        ]
      }
    },
    {
      "type": "Feature",
      "properties": {
        "norad_id": 66454,
        "name": "VIASAT-3 F2",
        "group": "last-30-days",
        "lat": -1.4710073693170778,
        "lon": 128.36558815573179,
        "alt_km": 12358.410002284509,
        "timestamp": "2025-12-04T05:42:42.157712+00:00",
        "meta_object_name": "VIASAT-3 F2",
        "meta_object_id": "2025-261A",
        "meta_epoch": "2025-12-03T13:51:54.074016",
        "meta_mean_motion": 2.28102532,
        "meta_eccentricity": 0.23421708,
        "meta_inclination": 5.5731,
        "meta_ra_of_asc_node": 293.1816,
        "meta_arg_of_pericenter": 184.1311,
        "meta_mean_anomaly": 184.4414,
        "meta_ephemeris_type": 0,
        "meta_classification_type": "U",
        "meta_norad_cat_id": 66454,
        "meta_element_set_no": 999,
        "meta_rev_at_epoch": 44,
        "meta_bstar": 0,
        "meta_mean_motion_dot": -5.4e-07,
        "meta_mean_motion_ddot": 0,
        "tle_line1": "1 66454U 25261A   25337.57770919 -.00000054  00000+0  00000+0 0  9994",
        "tle_line2": "2 66454   5.5731 293.1816 2342170 184.1311 184.4414  2.28102532   445"
      },
      "geometry": {
        "type": "Point",
        "coordinates": [
          128.36558815573179,
          -1.4710073693170778
        ]
      }
    },
    {
      "type": "Feature",
      "properties": {
        "norad_id": 66455,
        "name": "ATLAS 5 CENTAUR R/B",
        "group": "last-30-days",
        "lat": -0.2654523921295617,
        "lon": 114.9434236093759,
        "alt_km": 12315.234561416717,
        "timestamp": "2025-12-04T05:42:42.157724+00:00",
        "meta_object_name": "ATLAS 5 CENTAUR R/B",
        "meta_object_id": "2025-261B",
        "meta_epoch": "2025-12-03T13:50:16.729728",
        "meta_mean_motion": 2.28259378,
        "meta_eccentricity": 0.2329638,
        "meta_inclination": 6.1578,
        "meta_ra_of_asc_node": 292.5325,
        "meta_arg_of_pericenter": 184.6415,
        "meta_mean_anomaly": 175.0756,
        "meta_ephemeris_type": 0,
        "meta_classification_type": "U",
        "meta_norad_cat_id": 66455,
        "meta_element_set_no": 999,
        "meta_rev_at_epoch": 44,
        "meta_bstar": 0,
        "meta_mean_motion_dot": -5.3e-07,
        "meta_mean_motion_ddot": 0,
        "tle_line1": "1 66455U 25261B   25337.57658252 -.00000053  00000+0  00000+0 0  9999",
        "tle_line2": "2 66455   6.1578 292.5325 2329638 184.6415 175.0756  2.28259378   440"
      },
      "geometry": {
        "type": "Point",
        "coordinates": [
          114.9434236093759,
          -0.2654523921295617
        ]
      }
    },
    {
      "type": "Feature",
      "properties": {
        "norad_id": 66456,
        "name": "STARLINK-35643",
        "group": "last-30-days",
        "lat": -12.246428669871289,
        "lon": 107.41061089720984,
        "alt_km": 398.84547123905486,
        "timestamp": "2025-12-04T05:42:42.157735+00:00",
        "meta_object_name": "STARLINK-35643",
        "meta_object_id": "2025-262A",
        "meta_epoch": "2025-12-03T22:00:03.000096",
        "meta_mean_motion": 15.57779825,
        "meta_eccentricity": 0.00017791,
        "meta_inclination": 42.9993,
        "meta_ra_of_asc_node": 122.7787,
        "meta_arg_of_pericenter": 281.2967,
        "meta_mean_anomaly": 57.5545,
        "meta_ephemeris_type": 0,
        "meta_classification_type": "U",
        "meta_norad_cat_id": 66456,
        "meta_element_set_no": 999,
        "meta_rev_at_epoch": 422,
        "meta_bstar": -0.031008206,
        "meta_mean_motion_dot": -0.02107279,
        "meta_mean_motion_ddot": 0,
        "tle_line1": "1 66456U 25262A   25337.91670139 -.02107279  00000+0 -31008-1 0  9992",
        "tle_line2": "2 66456  42.9993 122.7787 0001779 281.2967  57.5545 15.57779825  4223"
      },
      "geometry": {
        "type": "Point",
        "coordinates": [
          107.41061089720984,
          -12.246428669871289
        ]
      }
    },
    {
      "type": "Feature",
      "properties": {
        "norad_id": 66457,
        "name": "STARLINK-35466",
        "group": "last-30-days",
        "lat": -9.691251057691684,
        "lon": 110.31059492513597,
        "alt_km": 398.70852605599885,
        "timestamp": "2025-12-04T05:42:42.157745+00:00",
        "meta_object_name": "STARLINK-35466",
        "meta_object_id": "2025-262B",
        "meta_epoch": "2025-12-03T22:00:03.000096",
        "meta_mean_motion": 15.57794931,
        "meta_eccentricity": 0.00017792,
        "meta_inclination": 42.9993,
        "meta_ra_of_asc_node": 122.769,
        "meta_arg_of_pericenter": 278.1741,
        "meta_mean_anomaly": 64.4971,
        "meta_ephemeris_type": 0,
        "meta_classification_type": "U",
        "meta_norad_cat_id": 66457,
        "meta_element_set_no": 999,
        "meta_rev_at_epoch": 422,
        "meta_bstar": -0.031185714,
        "meta_mean_motion_dot": -0.02119091,
        "meta_mean_motion_ddot": 0,
        "tle_line1": "1 66457U 25262B   25337.91670139 -.02119091  00000+0 -31186-1 0  9995",
        "tle_line2": "2 66457  42.9993 122.7690 0001779 278.1741  64.4971 15.57794931  4227"
      },
      "geometry": {
        "type": "Point",
        "coordinates": [
          110.31059492513597,
          -9.691251057691684
        ]
      }
    },
    {
      "type": "Feature",
      "properties": {
        "norad_id": 66458,
        "name": "STARLINK-35684",
        "group": "last-30-days",
        "lat": -10.969928250145315,
        "lon": 108.86929336316845,
        "alt_km": 398.9064274448965,
        "timestamp": "2025-12-04T05:42:42.157757+00:00",
        "meta_object_name": "STARLINK-35684",
        "meta_object_id": "2025-262C",
        "meta_epoch": "2025-12-03T22:00:03.000096",
        "meta_mean_motion": 15.57784463,
        "meta_eccentricity": 0.00018224,
        "meta_inclination": 42.9992,
        "meta_ra_of_asc_node": 122.7736,
        "meta_arg_of_pericenter": 274.1399,
        "meta_mean_anomaly": 66.6259,
        "meta_ephemeris_type": 0,
        "meta_classification_type": "U",
        "meta_norad_cat_id": 66458,
        "meta_element_set_no": 999,
        "meta_rev_at_epoch": 422,
        "meta_bstar": -0.031075035,
        "meta_mean_motion_dot": -0.02111683,
        "meta_mean_motion_ddot": 0,
        "tle_line1": "1 66458U 25262C   25337.91670139 -.02111683  00000+0 -31075-1 0  9992",
        "tle_line2": "2 66458  42.9992 122.7736 0001822 274.1399  66.6259 15.57784463  4224"
      },
      "geometry": {
        "type": "Point",
        "coordinates": [
          108.86929336316845,
          -10.969928250145315
        ]
      }
    }
  ]
}